[{"OBJECT_NAME":"ONEWEB-0119","OBJECT_ID":"2020-100H","EPOCH":"2026-03-09T20:50:03.312960","MEAN_MOTION":13.12443692,"ECCENTRICITY":0.00018329,"INCLINATION":87.8993,"RA_OF_ASC_NODE":10.3896,"ARG_OF_PERICENTER":79.5149,"MEAN_ANOMALY":280.6186,"EPHEMERIS_TYPE":0,"CLASSIFICATION_TYPE":"U","NORAD_CAT_ID":47265,"ELEMENT_SET_NO":999,"REV_AT_EPOCH":25167,"BSTAR":-0.00083717498,"MEAN_MOTION_DOT":-2.88e-6,"MEAN_MOTION_DDOT":0},{"OBJECT_NAME":"THORAD AGENA D DEB","OBJECT_ID":"1970-025DS","EPOCH":"2026-03-09T10:26:26.274048","MEAN_MOTION":13.26883764,"ECCENTRICITY":0.01838948,"INCLINATION":99.7479,"RA_OF_ASC_NODE":230.1145,"ARG_OF_PERICENTER":166.8853,"MEAN_ANOMALY":252.4923,"EPHEMERIS_TYPE":0,"CLASSIFICATION_TYPE":"U","NORAD_CAT_ID":4772,"ELEMENT_SET_NO":999,"REV_AT_EPOCH":68894,"BSTAR":0.0015860797,"MEAN_MOTION_DOT":7.34e-6,"MEAN_MOTION_DDOT":0}]
